0 COSMOS 2242
1 22626U 93024A   13282.10099145  .00001037  00000-0  11842-3 0  8978
2 22626 082.5242 229.9031 0018474 264.2634 095.6476 14.85054398105998
0 COSMOS 2242
1 22626U 93024A   13283.31382012  .00000930  00000-0  10588-3 0  8988
2 22626 082.5243 228.7646 0018498 259.9385 099.9744 14.85057944106174
0 COSMOS 2242
1 22626U 93024A   13284.39188709  .00001002  00000-0  11423-3 0  8995
2 22626 082.5245 227.7526 0018552 256.0635 103.8517 14.85059779106338
0 COSMOS 2242
1 22626U 93024A   13285.40257320  .00000900  00000-0  10241-3 0  9000
2 22626 082.5247 226.8039 0018583 252.4093 107.5093 14.85061647106484
0 COSMOS 2242
1 22626U 93024A   13286.41325826  .00000949  00000-0  10802-3 0  9016
2 22626 082.5249 225.8552 0018619 248.8613 111.0613 14.85063309106634
0 COSMOS 2242
1 22626U 93024A   13287.42394251  .00001058  00000-0  12075-3 0  9023
2 22626 082.5251 224.9065 0018681 245.3084 114.6187 14.85065608106784
0 COSMOS 2242
1 22626U 93024A   13288.77151737  .00001339  00000-0  15361-3 0  9036
2 22626 082.5253 223.6418 0018791 240.5769 119.3571 14.85070248106980
0 COSMOS 2242
1 22626U 93024A   13289.78219678  .00001269  00000-0  14539-3 0  9046
2 22626 082.5253 222.6933 0018844 237.0157 122.9248 14.85073864107138
0 COSMOS 2242
1 22626U 93024A   13290.92763105  .00001288  00000-0  14759-3 0  9059
2 22626 082.5254 221.6183 0018921 233.0557 126.8927 14.85077441107302
0 COSMOS 2242
1 22626U 93024A   13291.93830624  .00001271  00000-0  14565-3 0  9060
2 22626 082.5254 220.6699 0019002 229.5400 130.4160 14.85079061107457
0 COSMOS 2242
1 22626U 93024A   13293.15111386  .00001418  00000-0  16271-3 0  9073
2 22626 082.5253 219.5318 0019098 225.2943 134.6719 14.85081869107636
0 COSMOS 2242
1 22626U 93024A   13294.36392019  .00001328  00000-0  15221-3 0  9086
2 22626 082.5253 218.3937 0019192 221.0837 138.8934 14.85086017107816
0 COSMOS 2242
1 22626U 93024A   13295.37459004  .00001375  00000-0  15769-3 0  9096
2 22626 082.5253 217.4452 0019278 217.6156 142.3713 14.85089128107965
